GLOBALSTAR M069         
1 31573U 07020C   26177.85923056 -.00000055  00000+0  34804-3 0  9991
2 31573  52.0006 224.7512 0002115 169.4544  14.8143 12.23471544879984
GLOBALSTAR M072         
1 31574U 07020D   26178.04341632 -.00000088  00000+0 -51335-4 0  9994
2 31574  51.9937  74.0056 0001523 356.4163 110.1439 11.91658409876157
GLOBALSTAR M066         
1 32265U 07048C   26178.01050475 -.00000114  00000+0 -16498-3 0  9991
2 32265  51.9607  29.7130 0005627  64.7091 101.0223 12.30387001861433
GLOBALSTAR M079         
1 37188U 10054A   26178.04370218 -.00000104  00000+0  87913-6 0  9995
2 37188  52.0044  78.6654 0000923  45.6656  58.4079 12.62266235723792
GLOBALSTAR M074         
1 37189U 10054B   26177.90618595 -.00000112  00000+0 -47034-4 0  9991
2 37189  52.0015  78.3472 0000712  68.6000  10.5372 12.62261814724389
GLOBALSTAR M076         
1 37190U 10054C   26177.99731860 -.00000113  00000+0 -52710-4 0  9991
2 37190  52.0030  78.2738 0000940  61.8383 311.5181 12.62261873724112
GLOBALSTAR M077         
1 37191U 10054D   26178.21321603 -.00000071  00000+0  12430-3 0  9994
2 37191  51.9926 153.8471 0002571 190.9211 182.0962 11.67547984722317
GLOBALSTAR M075         
1 37192U 10054E   26178.08961023 -.00000112  00000+0 -47673-4 0  9991
2 37192  51.9939 120.0415 0000400  36.5440 336.5238 12.62267414723196
GLOBALSTAR M073         
1 37193U 10054F   26177.85238263 -.00000088  00000+0  87997-4 0  9993
2 37193  52.0075  34.8721 0001064  66.7635 306.2110 12.62266663725156
GLOBALSTAR M083         
1 37739U 11033A   26178.21695868 -.00000077  00000+0  14774-3 0  9996
2 37739  51.9881 341.9769 0000955  83.1555  88.7082 12.62263656694212
GLOBALSTAR M088         
1 37740U 11033B   26177.95308830 -.00000081  00000+0  12751-3 0  9996
2 37740  52.0203 249.2339 0000488 141.3830  29.2977 12.62268988689727
GLOBALSTAR M091         
1 37741U 11033C   26177.80786671 -.00000077  00000+0  15054-3 0  9998
2 37741  51.9969 212.6261 0000062 181.8795 349.4250 12.62264106690495
GLOBALSTAR M085         
1 37742U 11033D   26178.23495769 -.00000099  00000+0  24201-4 0  9991
2 37742  52.0099 162.6251 0000344 357.1152  15.9637 12.62264180691063
GLOBALSTAR M081         
1 37743U 11033E   26178.19784484 -.00000094  00000+0  56793-4 0  9998
2 37743  51.9930 165.1630 0000238  35.9140  48.1491 12.62265259691205
GLOBALSTAR M089         
1 37744U 11033F   26178.14259601 -.00000109  00000+0 -29640-4 0  9991
2 37744  51.9920 119.4879 0000497  78.4915 295.3457 12.62267414692047
GLOBALSTAR M084         
1 38040U 11080A   26178.19045458 -.00000096  00000+0  43480-4 0  9993
2 38040  52.0026 346.8286 0001097 102.1922  69.1514 12.62267649670029
GLOBALSTAR M080         
1 38041U 11080B   26178.24092374 -.00000084  00000+0  10791-3 0  9994
2 38041  52.0084 348.3967 0000421  77.4570  93.4421 12.62269764670151
GLOBALSTAR M082         
1 38042U 11080C   26178.09796858 -.00000101  00000+0  15421-4 0  9992
2 38042  52.0089 304.3343 0000474 106.2239  64.5730 12.62263746670840
GLOBALSTAR M092         
1 38043U 11080D   26177.98725654 -.00000091  00000+0  70928-4 0  9997
2 38043  52.0098  35.0685 0000822  77.3843  69.2094 12.62267137669283
GLOBALSTAR M090         
1 38044U 11080E   26178.04547911 -.00000108  00000+0 -20902-4 0  9991
2 38044  52.0134 298.4529 0000717 103.0447  68.3166 12.62269075670956
GLOBALSTAR M086         
1 38045U 11080F   26178.06693869 -.00000078  00000+0  14270-3 0  9993
2 38045  51.9910 298.3014 0001684  84.1397  86.4557 12.62287241670907
GLOBALSTAR M097         
1 39072U 13005A   26177.82340945 -.00000072  00000+0  17479-3 0  9998
2 39072  52.0016 214.0038 0000131  97.1104 262.9778 12.62271200618124
GLOBALSTAR M093         
1 39073U 13005B   26177.79656311 -.00000077  00000+0  14796-3 0  9996
2 39073  52.0075 207.4348 0000223  40.6543 319.4341 12.62266086618076
GLOBALSTAR M094         
1 39074U 13005C   26178.11316941 -.00000123  00000+0 -10499-3 0  9995
2 39074  51.9946 120.5765 0000656  28.5942 331.4961 12.62268484619727
GLOBALSTAR M096         
1 39075U 13005D   26178.12667453 -.00000102  00000+0  83147-5 0  9992
2 39075  52.0044 169.3452 0000274   0.6534 359.4333 12.62265642618643
GLOBALSTAR M078         
1 39076U 13005E   26177.94136910  .00000036  00000+0  78113-3 0  9991
2 39076  51.9865 253.9072 0000502 272.8083  87.2727 12.62259916617242
GLOBALSTAR M095         
1 39077U 13005F   26177.88890530 -.00000081  00000+0  12886-3 0  9996
2 39077  52.0073 251.6849 0000053  91.2536 268.8337 12.62263622617096
GLOBALSTAR M087         
1 52888U 22064A   26177.98128274 -.00000093  00000+0  60319-4 0  9994
2 52888  52.0010  32.6351 0000892  58.1235 301.9718 12.62269242192371
